{
 "generated_at": "2026-06-22T10:39:18Z",
 "sources": [
  {
   "name": "CelesTrak",
   "url": "https://celestrak.org/NORAD/elements/",
   "license": "frei verfügbar; Attribution. Ursprünglich USSPACECOM/Space-Track."
  },
  {
   "name": "GCAT (J. McDowell, planet4589.org)",
   "url": "https://planet4589.org/space/gcat/",
   "license": "CC-BY 4.0"
  }
 ],
 "satellites": [
  {
   "norad": 66752,
   "name": "ICEYE-X59",
   "intl": "2025-276CQ",
   "group": "sar",
   "gcat": {
    "class": "B",
    "category": "IMG-R",
    "owner": "ELKED",
    "state": "GR"
   },
   "omm": {
    "OBJECT_NAME": "ICEYE-X59",
    "OBJECT_ID": "2025-276CQ",
    "EPOCH": "2026-06-19T17:57:27.292320",
    "MEAN_MOTION": 15.01528813,
    "ECCENTRICITY": 0.00016362,
    "INCLINATION": 97.432,
    "RA_OF_ASC_NODE": 241.9345,
    "ARG_OF_PERICENTER": 87.8426,
    "MEAN_ANOMALY": 272.2986,
    "EPHEMERIS_TYPE": 0,
    "CLASSIFICATION_TYPE": "U",
    "NORAD_CAT_ID": 66752,
    "ELEMENT_SET_NO": 999,
    "REV_AT_EPOCH": 3065,
    "BSTAR": 0.00030115781,
    "MEAN_MOTION_DOT": 0.00003841,
    "MEAN_MOTION_DDOT": 0
   }
  },
  {
   "norad": 46497,
   "name": "ICEYE-X6",
   "intl": "2020-068M",
   "group": "sar",
   "gcat": {
    "class": "B",
    "category": "IMG-R",
    "owner": "ICEYE",
    "state": "FI"
   },
   "omm": {
    "OBJECT_NAME": "ICEYE-X6",
    "OBJECT_ID": "2020-068M",
    "EPOCH": "2026-06-21T12:20:35.090592",
    "MEAN_MOTION": 15.04545583,
    "ECCENTRICITY": 0.0009048,
    "INCLINATION": 98.0984,
    "RA_OF_ASC_NODE": 166.3926,
    "ARG_OF_PERICENTER": 79.2813,
    "MEAN_ANOMALY": 280.943,
    "EPHEMERIS_TYPE": 0,
    "CLASSIFICATION_TYPE": "U",
    "NORAD_CAT_ID": 46497,
    "ELEMENT_SET_NO": 999,
    "REV_AT_EPOCH": 31388,
    "BSTAR": 0.0001571,
    "MEAN_MOTION_DOT": 0.00002136,
    "MEAN_MOTION_DDOT": 0
   }
  },
  {
   "norad": 66753,
   "name": "ICEYE-X60",
   "intl": "2025-276CR",
   "group": "sar",
   "gcat": {
    "class": "B",
    "category": "IMG-R",
    "owner": "ELKED",
    "state": "GR"
   },
   "omm": {
    "OBJECT_NAME": "ICEYE-X60",
    "OBJECT_ID": "2025-276CR",
    "EPOCH": "2026-06-20T10:28:17.431104",
    "MEAN_MOTION": 15.1127757,
    "ECCENTRICITY": 0.0002967,
    "INCLINATION": 97.419,
    "RA_OF_ASC_NODE": 244.0095,
    "ARG_OF_PERICENTER": 48.4524,
    "MEAN_ANOMALY": 311.696,
    "EPHEMERIS_TYPE": 0,
    "CLASSIFICATION_TYPE": "U",
    "NORAD_CAT_ID": 66753,
    "ELEMENT_SET_NO": 999,
    "REV_AT_EPOCH": 3085,
    "BSTAR": 0.00029074,
    "MEAN_MOTION_DOT": 0.00004831,
    "MEAN_MOTION_DDOT": 0
   }
  },
  {
   "norad": 66754,
   "name": "ICEYE-X61",
   "intl": "2025-276CS",
   "group": "sar",
   "gcat": {
    "class": "B",
    "category": "IMG-R",
    "owner": "ICEYE",
    "state": "FI"
   },
   "omm": {
    "OBJECT_NAME": "ICEYE-X61",
    "OBJECT_ID": "2025-276CS",
    "EPOCH": "2026-06-20T04:36:08.989344",
    "MEAN_MOTION": 15.18427772,
    "ECCENTRICITY": 0.00025792,
    "INCLINATION": 97.4197,
    "RA_OF_ASC_NODE": 244.6261,
    "ARG_OF_PERICENTER": 359.03,
    "MEAN_ANOMALY": 1.0929,
    "EPHEMERIS_TYPE": 0,
    "CLASSIFICATION_TYPE": "U",
    "NORAD_CAT_ID": 66754,
    "ELEMENT_SET_NO": 999,
    "REV_AT_EPOCH": 3087,
    "BSTAR": 0.00012480406,
    "MEAN_MOTION_DOT": 0.00002502,
    "MEAN_MOTION_DDOT": 0
   }
  },
  {
   "norad": 66755,
   "name": "ICEYE-X62",
   "intl": "2025-276CT",
   "group": "sar",
   "gcat": {
    "class": "B",
    "category": "IMG-R",
    "owner": "MON/WKL",
    "state": "PL"
   },
   "omm": {
    "OBJECT_NAME": "ICEYE-X62",
    "OBJECT_ID": "2025-276CT",
    "EPOCH": "2026-06-20T10:37:46.655040",
    "MEAN_MOTION": 15.1003812,
    "ECCENTRICITY": 0.0002547,
    "INCLINATION": 97.4202,
    "RA_OF_ASC_NODE": 243.5492,
    "ARG_OF_PERICENTER": 30.1986,
    "MEAN_ANOMALY": 329.939,
    "EPHEMERIS_TYPE": 0,
    "CLASSIFICATION_TYPE": "U",
    "NORAD_CAT_ID": 66755,
    "ELEMENT_SET_NO": 999,
    "REV_AT_EPOCH": 3082,
    "BSTAR": 0.000088506,
    "MEAN_MOTION_DOT": 0.00001378,
    "MEAN_MOTION_DDOT": 0
   }
  },
  {
   "norad": 67372,
   "name": "ICEYE-X63",
   "intl": "2026-004K",
   "group": "sar",
   "gcat": {
    "class": "B",
    "category": "IMG-R",
    "owner": "ICEYE",
    "state": "FI"
   },
   "omm": {
    "OBJECT_NAME": "ICEYE-X63",
    "OBJECT_ID": "2026-004K",
    "EPOCH": "2026-06-20T10:38:27.523968",
    "MEAN_MOTION": 14.88305223,
    "ECCENTRICITY": 0.0005703,
    "INCLINATION": 97.8,
    "RA_OF_ASC_NODE": 170.0318,
    "ARG_OF_PERICENTER": 111.4085,
    "MEAN_ANOMALY": 248.7741,
    "EPHEMERIS_TYPE": 0,
    "CLASSIFICATION_TYPE": "U",
    "NORAD_CAT_ID": 67372,
    "ELEMENT_SET_NO": 999,
    "REV_AT_EPOCH": 2378,
    "BSTAR": 0.000073865,
    "MEAN_MOTION_DOT": 0.00000629,
    "MEAN_MOTION_DDOT": 0
   }
  },
  {
   "norad": 67373,
   "name": "ICEYE-X64",
   "intl": "2026-004L",
   "group": "sar",
   "gcat": {
    "class": "D",
    "category": "IMG-R",
    "owner": "PUOL",
    "state": "FI"
   },
   "omm": {
    "OBJECT_NAME": "ICEYE-X64",
    "OBJECT_ID": "2026-004L",
    "EPOCH": "2026-06-20T10:02:56.691744",
    "MEAN_MOTION": 14.87928583,
    "ECCENTRICITY": 0.0007351,
    "INCLINATION": 97.8015,
    "RA_OF_ASC_NODE": 169.9369,
    "ARG_OF_PERICENTER": 118.5072,
    "MEAN_ANOMALY": 241.6885,
    "EPHEMERIS_TYPE": 0,
    "CLASSIFICATION_TYPE": "U",
    "NORAD_CAT_ID": 67373,
    "ELEMENT_SET_NO": 999,
    "REV_AT_EPOCH": 2377,
    "BSTAR": 0.00011123,
    "MEAN_MOTION_DOT": 0.00000965,
    "MEAN_MOTION_DDOT": 0
   }
  },
  {
   "norad": 66300,
   "name": "ICEYE-X65",
   "intl": "2025-248H",
   "group": "sar",
   "gcat": {
    "class": "B",
    "category": "IMG-R",
    "owner": "SP42",
    "state": "UAE"
   },
   "omm": {
    "OBJECT_NAME": "ICEYE-X65",
    "OBJECT_ID": "2025-248H",
    "EPOCH": "2026-06-20T06:17:41.489664",
    "MEAN_MOTION": 15.07761391,
    "ECCENTRICITY": 0.0004681,
    "INCLINATION": 45.4049,
    "RA_OF_ASC_NODE": 118.0019,
    "ARG_OF_PERICENTER": 39.6151,
    "MEAN_ANOMALY": 320.5072,
    "EPHEMERIS_TYPE": 0,
    "CLASSIFICATION_TYPE": "U",
    "NORAD_CAT_ID": 66300,
    "ELEMENT_SET_NO": 999,
    "REV_AT_EPOCH": 3598,
    "BSTAR": 0.00010369,
    "MEAN_MOTION_DOT": 0.00001361,
    "MEAN_MOTION_DDOT": 0
   }
  },
  {
   "norad": 66301,
   "name": "ICEYE-X66",
   "intl": "2025-248J",
   "group": "sar",
   "gcat": {
    "class": "B",
    "category": "IMG-R",
    "owner": "SP42",
    "state": "UAE"
   },
   "omm": {
    "OBJECT_NAME": "ICEYE-X66",
    "OBJECT_ID": "2025-248J",
    "EPOCH": "2026-06-20T06:44:02.078304",
    "MEAN_MOTION": 15.09001875,
    "ECCENTRICITY": 0.0004485,
    "INCLINATION": 45.4017,
    "RA_OF_ASC_NODE": 117.2466,
    "ARG_OF_PERICENTER": 32.8404,
    "MEAN_ANOMALY": 327.2756,
    "EPHEMERIS_TYPE": 0,
    "CLASSIFICATION_TYPE": "U",
    "NORAD_CAT_ID": 66301,
    "ELEMENT_SET_NO": 999,
    "REV_AT_EPOCH": 3597,
    "BSTAR": 0.00010908,
    "MEAN_MOTION_DOT": 0.00001501,
    "MEAN_MOTION_DDOT": 0
   }
  },
  {
   "norad": 66302,
   "name": "ICEYE-X67",
   "intl": "2025-248K",
   "group": "sar",
   "gcat": {
    "class": "B",
    "category": "IMG-R",
    "owner": "SP42",
    "state": "UAE"
   },
   "omm": {
    "OBJECT_NAME": "ICEYE-X67",
    "OBJECT_ID": "2025-248K",
    "EPOCH": "2026-06-20T05:43:48.254016",
    "MEAN_MOTION": 15.08979401,
    "ECCENTRICITY": 0.0005921,
    "INCLINATION": 45.4054,
    "RA_OF_ASC_NODE": 117.0333,
    "ARG_OF_PERICENTER": 39.3501,
    "MEAN_ANOMALY": 320.7811,
    "EPHEMERIS_TYPE": 0,
    "CLASSIFICATION_TYPE": "U",
    "NORAD_CAT_ID": 66302,
    "ELEMENT_SET_NO": 999,
    "REV_AT_EPOCH": 3598,
    "BSTAR": 0.00010889,
    "MEAN_MOTION_DOT": 0.00001496,
    "MEAN_MOTION_DDOT": 0
   }
  }
 ]
}
