ICEYE-X6                
1 46497U 20068M   26172.51429503  .00002136  00000+0  15710-3 0  9991
2 46497  98.0984 166.3926 0009048  79.2813 280.9430 15.04545583313883
ICEYE-X65               
1 66300U 25248H   26171.26228576  .00001361  00000+0  10369-3 0  9993
2 66300  45.4049 118.0019 0004681  39.6151 320.5072 15.07761391 35981
ICEYE-X66               
1 66301U 25248J   26171.28057961  .00001501  00000+0  10908-3 0  9999
2 66301  45.4017 117.2466 0004485  32.8404 327.2756 15.09001875 35970
ICEYE-X67               
1 66302U 25248K   26171.23875294  .00001496  00000+0  10889-3 0  9993
2 66302  45.4054 117.0333 0005921  39.3501 320.7811 15.08979401 35988
ICEYE-X59               
1 66752U 25276CQ  26170.74823255  .00003841  00000+0  30116-3 0  9999
2 66752  97.4320 241.9345 0001636  87.8426 272.2986 15.01528813 30656
ICEYE-X60               
1 66753U 25276CR  26171.43631286  .00004831  00000+0  29074-3 0  9999
2 66753  97.4190 244.0095 0002967  48.4524 311.6960 15.11277570 30852
ICEYE-X61               
1 66754U 25276CS  26171.19177071  .00002502  00000+0  12480-3 0  9996
2 66754  97.4197 244.6261 0002579 359.0300   1.0929 15.18427772 30878
ICEYE-X62               
1 66755U 25276CT  26171.44290110  .00001378  00000+0  88506-4 0  9998
2 66755  97.4202 243.5492 0002547  30.1986 329.9390 15.10038120 30828
ICEYE-X63               
1 67372U 26004K   26171.44337412  .00000629  00000+0  73865-4 0  9991
2 67372  97.8000 170.0318 0005703 111.4085 248.7741 14.88305223 23785
ICEYE-X64               
1 67373U 26004L   26171.41871171  .00000965  00000+0  11123-3 0  9995
2 67373  97.8015 169.9369 0007351 118.5072 241.6885 14.87928583 23779
